NORAD_CAT_ID,OBJECT_NAME,OBJECT_TYPE,EPOCH,MEAN_MOTION,ECCENTRICITY,INCLINATION,RA_OF_ASC_NODE,ARG_OF_PERICENTER,MEAN_ANOMALY,BSTAR,MEAN_MOTION_DOT,MEAN_MOTION_DDOT,TLE_LINE0,TLE_LINE1,TLE_LINE2,SEMIMAJOR_AXIS,PERIOD,APOGEE,PERIGEE,DECAYED
53550.0,STARLINK-4518,PAYLOAD,2023-03-21 10:57:00,15.08837341,0.0001112,53.2146,251.4346,89.4894,270.6225,7.8608e-05,9.63e-06,0.0,0 STARLINK-4518,1 53550U 22101Z   23080.45625457  .00000963  00000-0  78608-4 0  9996,2 53550  53.2146 251.4346 0001112  89.4894 270.6225 15.08837341 33283,6917.889,95.438,540.523,538.984,0.0
53550.0,STARLINK-4518,PAYLOAD,2023-03-22 04:26:14,15.08835968,0.0001173,53.2146,248.1635,90.6825,269.4302,-1.9564e-05,-5.99e-06,0.0,0 STARLINK-4518,1 53550U 22101Z   23081.18489448 -.00000599  00000-0 -19564-4 0  9998,2 53550  53.2146 248.1635 0001173  90.6825 269.4302 15.08835968 32736,6917.893,95.438,540.569,538.946,0.0
53550.0,STARLINK-4518,PAYLOAD,2023-03-22 17:09:19,15.08842889,0.0001105,53.2135,245.7825,101.4153,258.6963,0.00013825,1.913e-05,0.0,0 STARLINK-4518,1 53550U 22101Z   23081.71481157  .00001913  00000-0  13825-3 0  9998,2 53550  53.2135 245.7825 0001105 101.4153 258.6963 15.08842889 33473,6917.872,95.437,540.501,538.972,0.0
53550.0,STARLINK-4518,PAYLOAD,2023-03-23 10:38:34,15.08836049,0.0001461,53.2139,242.5134,72.3392,287.776,9.5697e-05,1.235e-05,0.0,0 STARLINK-4518,1 53550U 22101Z   23082.44345824  .00001235  00000-0  95697-4 0  9994,2 53550  53.2139 242.5134 0001461  72.3392 287.7760 15.08836049 32929,6917.892,95.438,540.768,538.747,0.0
53550.0,STARLINK-4518,PAYLOAD,2023-03-23 17:00:07,15.08844197,0.000128,53.2132,241.3222,79.1684,280.9452,0.00030431,4.559e-05,0.0,0 STARLINK-4518,1 53550U 22101Z   23082.70841620  .00004559  00000-0  30431-3 0  9994,2 53550  53.2132 241.3222 0001280  79.1684 280.9452 15.08844197 33629,6917.868,95.437,540.618,538.847,0.0
53550.0,STARLINK-4518,PAYLOAD,2023-03-24 13:40:06,15.08882195,0.0001305,53.2142,237.456,77.1898,282.9239,0.0012093,0.00019033,0.0,0 STARLINK-4518,1 53550U 22101Z   23083.56952093  .00019033  00000-0  12093-2 0  9992,2 53550  53.2142 237.4560 0001305  77.1898 282.9239 15.08882195 33753,6917.751,95.435,540.519,538.714,0.0
53550.0,STARLINK-4518,PAYLOAD,2023-03-24 15:15:29,15.08890482,0.0001312,53.2144,237.1586,75.2409,284.8729,0.0015213,0.0002404,0.0,0 STARLINK-4518,1 53550U 22101Z   23083.63575897  .00024040  00000-0  15213-2 0  9994,2 53550  53.2144 237.1586 0001312  75.2409 284.8729 15.08890482 33107,6917.726,95.434,540.499,538.683,0.0
53550.0,STARLINK-4518,PAYLOAD,2023-03-24 16:50:52,15.08901913,0.0001308,53.2153,236.8612,83.2791,276.835,0.0018342,0.00029074,0.0,0 STARLINK-4518,1 53550U 22101Z   23083.70199500  .00029074  00000-0  18342-2 0  9993,2 53550  53.2153 236.8612 0001308  83.2791 276.8350 15.08901913 33777,6917.691,95.434,540.461,538.651,0.0
53550.0,STARLINK-4518,PAYLOAD,2023-03-24 21:37:00,15.08923857,0.0001292,53.2154,235.9706,79.226,280.8877,0.0019481,0.00030924,0.0,0 STARLINK-4518,1 53550U 22101Z   23083.90070445  .00030924  00000-0  19481-2 0  9992,2 53550  53.2154 235.9706 0001292  79.2260 280.8877 15.08923857 33141,6917.624,95.432,540.383,538.595,0.0
53550.0,STARLINK-4518,PAYLOAD,2023-03-25 16:41:39,15.0881889,0.0001171,53.2155,232.403,112.2518,247.8599,0.00090291,0.00014103,0.0,0 STARLINK-4518,1 53550U 22101Z   23084.69559825  .00014103  00000-0  90291-3 0  9993,2 53550  53.2155 232.4030 0001171 112.2518 247.8599 15.08818890 33261,6917.945,95.439,540.62,539.0,0.0
53550.0,STARLINK-4518,PAYLOAD,2023-03-25 21:27:48,15.08837331,0.0001204,53.2152,231.5104,108.8192,251.2931,0.00024834,3.666e-05,0.0,0 STARLINK-4518,1 53550U 22101Z   23084.89431667  .00003666  00000-0  24834-3 0  9990,2 53550  53.2152 231.5104 0001204 108.8192 251.2931 15.08837331 33952,6917.889,95.438,540.586,538.921,0.0
53550.0,STARLINK-4518,PAYLOAD,2023-03-26 10:10:55,15.08816059,0.0001404,53.2156,229.1325,98.0729,262.0422,0.00022139,3.235e-05,0.0,0 STARLINK-4518,1 53550U 22101Z   23085.42425493  .00003235  00000-0  22139-3 0  9998,2 53550  53.2156 229.1325 0001404  98.0729 262.0422 15.08816059 33377,6917.954,95.439,540.79,538.847,0.0
53550.0,STARLINK-4518,PAYLOAD,2023-03-26 19:43:15,15.08825101,0.0001073,53.2155,227.3479,96.6386,263.4728,0.0016124,0.00025456,0.0,0 STARLINK-4518,1 53550U 22101Z   23085.82170209  .00025456  00000-0  16124-2 0  9999,2 53550  53.2155 227.3479 0001073  96.6386 263.4728 15.08825101 34093,6917.926,95.438,540.533,539.049,0.0
53550.0,STARLINK-4518,PAYLOAD,2023-03-27 13:12:29,15.08849882,0.0001078,53.2146,224.0763,93.7698,266.3417,0.0012986,0.00020445,0.0,0 STARLINK-4518,1 53550U 22101Z   23086.55034378  .00020445  00000-0  12986-2 0  9991,2 53550  53.2146 224.0763 0001078  93.7698 266.3417 15.08849882 33540,6917.85,95.437,540.461,538.969,0.0
53550.0,STARLINK-4518,PAYLOAD,2023-03-27 16:23:15,15.08859836,0.0001102,53.2148,223.4821,94.9917,265.1201,0.0015165,0.00023943,0.0,0 STARLINK-4518,1 53550U 22101Z   23086.68282164  .00023943  00000-0  15165-2 0  9991,2 53550  53.2148 223.4821 0001102  94.9917 265.1201 15.08859836 34229,6917.82,95.436,540.447,538.922,0.0
53550.0,STARLINK-4518,PAYLOAD,2023-03-28 01:55:34,15.08854725,9.67e-05,53.2146,221.6991,106.4246,253.6852,0.00083493,0.0001303,0.0,0 STARLINK-4518,1 53550U 22101Z   23087.08026007  .00013030  00000-0  83493-3 0  9994,2 53550  53.2146 221.6991 0000967 106.4246 253.6852 15.08854725 33626,6917.835,95.437,540.369,539.031,0.0
53550.0,STARLINK-4518,PAYLOAD,2023-03-28 13:03:16,15.0884773,0.0001557,53.2164,219.6165,103.4813,256.6353,0.00035004,5.288e-05,0.0,0 STARLINK-4518,1 53550U 22101Z   23087.54394090  .00005288  00000-0  35004-3 0  9996,2 53550  53.2164 219.6165 0001557 103.4813 256.6353 15.08847730 33693,6917.857,95.437,540.799,538.645,0.0
53550.0,STARLINK-4518,PAYLOAD,2023-03-28 16:14:02,15.08858204,0.000126,53.215,219.0214,103.1453,256.968,0.00076477,0.0001191,0.0,0 STARLINK-4518,1 53550U 22101Z   23087.67641823  .00011910  00000-0  76477-3 0  9997,2 53550  53.2150 219.0214 0001260 103.1453 256.9680 15.08858204 34375,6917.825,95.436,540.561,538.818,0.0
53550.0,STARLINK-4518,PAYLOAD,2023-03-29 12:54:03,15.08849957,0.0001836,53.2152,215.1561,82.223,277.8971,0.0007628,0.00011876,0.0,0 STARLINK-4518,1 53550U 22101Z   23088.53754273  .00011876  00000-0  76280-3 0  9990,2 53550  53.2152 215.1561 0001836  82.2230 277.8971 15.08849957 34503,6917.85,95.437,540.985,538.445,0.0
53550.0,STARLINK-4518,PAYLOAD,2023-03-29 16:04:49,15.08848558,0.0001368,53.215,214.5619,81.8505,278.2642,0.00049027,7.525e-05,0.0,0 STARLINK-4518,1 53550U 22101Z   23088.67002087  .00007525  00000-0  49027-3 0  9999,2 53550  53.2150 214.5619 0001368  81.8505 278.2642 15.08848558 33862,6917.854,95.437,540.666,538.773,0.0
53550.0,STARLINK-4518,PAYLOAD,2023-03-29 20:50:58,15.08871168,9.37e-05,53.2135,213.667,115.89,244.2189,0.00098699,0.00015468,0.0,0 STARLINK-4518,1 53550U 22101Z   23088.86873060  .00015468  00000-0  98699-3 0  9991,2 53550  53.2135 213.6670 0000937 115.8900 244.2189 15.08871168 34559,6917.785,95.436,540.298,539.002,0.0
53550.0,STARLINK-4518,PAYLOAD,2023-03-30 07:58:41,15.08815887,7.49e-05,53.215,211.5882,52.7643,307.3417,-0.00047518,-7.837e-05,0.0,0 STARLINK-4518,1 53550U 22101Z   23089.33242766 -.00007837  00000-0 -47518-3 0  9994,2 53550  53.2150 211.5882 0000749  52.7643 307.3417 15.08815887 33967,6917.954,95.439,540.337,539.301,0.0
53550.0,STARLINK-4518,PAYLOAD,2023-03-30 19:06:23,15.08857609,0.0001486,53.2141,209.5026,98.6143,261.5017,0.0011426,0.00017952,0.0,0 STARLINK-4518,1 53550U 22101Z   23089.79610251  .00017952  00000-0  11426-2 0  9997,2 53550  53.2141 209.5026 0001486  98.6143 261.5017 15.08857609 34031,6917.827,95.436,540.72,538.664,0.0
53550.0,STARLINK-4518,PAYLOAD,2023-03-31 01:27:56,15.08838924,0.0001122,53.2156,208.3175,75.3394,284.7722,0.00043267,6.605e-05,0.0,0 STARLINK-4518,1 53550U 22101Z   23090.06106484  .00006605  00000-0  43267-3 0  9999,2 53550  53.2156 208.3175 0001122  75.3394 284.7722 15.08838924 34079,6917.884,95.438,540.525,538.972,0.0
53550.0,STARLINK-4518,PAYLOAD,2023-03-31 14:11:00,15.08860791,0.0001657,53.2141,205.9406,72.4446,287.6727,0.00095748,0.00014992,0.0,0 STARLINK-4518,1 53550U 22101Z   23090.59098294  .00014992  00000-0  95748-3 0  9995,2 53550  53.2141 205.9406 0001657  72.4446 287.6727 15.08860791 34155,6917.817,95.436,540.828,538.536,0.0
53550.0,STARLINK-4518,PAYLOAD,2023-04-01 12:26:25,15.08844516,0.000184,53.2147,201.7693,112.3245,247.7942,0.000651,0.00010089,0.0,0 STARLINK-4518,1 53550U 22101Z   23091.51834790  .00010089  00000-0  65100-3 0  9999,2 53550  53.2147 201.7693 0001840 112.3245 247.7942 15.08844516 34296,6917.867,95.437,541.004,538.459,0.0
53550.0,STARLINK-4518,PAYLOAD,2023-04-01 14:01:48,15.08860723,0.0001446,53.2151,201.4722,117.3535,242.7605,0.0015199,0.00023998,0.0,0 STARLINK-4518,1 53550U 22101Z   23091.58459208  .00023998  00000-0  15199-2 0  9998,2 53550  53.2151 201.4722 0001446 117.3535 242.7605 15.08860723 34963,6917.817,95.436,540.682,538.682,0.0
53550.0,STARLINK-4518,PAYLOAD,2023-04-02 05:55:38,15.08898167,0.0001542,53.2145,198.5031,105.6821,254.4341,0.0019518,0.00030961,0.0,0 STARLINK-4518,1 53550U 22101Z   23092.24696817  .00030961  00000-0  19518-2 0  9998,2 53550  53.2145 198.5031 0001542 105.6821 254.4341 15.08898167 34409,6917.703,95.434,540.634,538.501,0.0
53550.0,STARLINK-4518,PAYLOAD,2023-04-02 12:17:12,15.0884019,0.0001305,53.2152,197.314,89.1019,271.0123,0.0013649,0.00021501,0.0,0 STARLINK-4518,1 53550U 22101Z   23092.51194800  .00021501  00000-0  13649-2 0  9992,2 53550  53.2152 197.3140 0001305  89.1019 271.0123 15.08840190 34447,6917.88,95.438,540.648,538.842,0.0
53550.0,STARLINK-4518,PAYLOAD,2023-04-02 23:24:54,15.08838543,0.0001419,53.2148,195.2311,90.102,270.0134,0.0008588,0.00013406,0.0,0 STARLINK-4518,1 53550U 22101Z   23092.97563117  .00013406  00000-0  85880-3 0  9995,2 53550  53.2148 195.2311 0001419  90.1020 270.0134 15.08838543 34517,6917.885,95.438,540.731,538.768,0.0
